NORAD_CAT_ID,OBJECT_NAME,OBJECT_TYPE,EPOCH,MEAN_MOTION,ECCENTRICITY,INCLINATION,RA_OF_ASC_NODE,ARG_OF_PERICENTER,MEAN_ANOMALY,BSTAR,MEAN_MOTION_DOT,MEAN_MOTION_DDOT,TLE_LINE0,TLE_LINE1,TLE_LINE2,SEMIMAJOR_AXIS,PERIOD,APOGEE,PERIGEE,DECAYED
52271.0,STARLINK-3788,PAYLOAD,2022-10-28 04:50:06,15.08847869,0.0002095,53.2195,224.0212,41.0645,319.0504,9.8635e-05,1.282e-05,0.0,0 STARLINK-3788,1 52271U 22041L   22301.20145968  .00001282  00000-0  98635-4 0  9997,2 52271  53.2195 224.0212 0002095  41.0645 319.0504 15.08847869 28900,6917.856,95.437,541.1709999999998,538.2719999999998,0.0
52271.0,STARLINK-3788,PAYLOAD,2022-10-28 19:08:34,15.08842906,0.0002117,53.2194,221.3448,40.8998,319.2152,0.00010094,1.319e-05,0.0,0 STARLINK-3788,1 52271U 22041L   22301.79762073  .00001319  00000-0  10094-3 0  9996,2 52271  53.2194 221.3448 0002117  40.8998 319.2152 15.08842906 28990,6917.871999999999,95.437,541.201,538.2719999999998,0.0
52271.0,STARLINK-3788,PAYLOAD,2022-10-29 01:30:07,15.08839611,0.0002109999999999,53.2189,220.1544,38.2479,321.8663,3.1541e-05,2.14e-06,0.0,0 STARLINK-3788,1 52271U 22041L   22302.06258457  .00000214  00000-0  31541-4 0  9997,2 52271  53.2189 220.1544 0002110  38.2479 321.8663 15.08839611 30253,6917.882,95.438,541.206,538.2869999999998,0.0
52271.0,STARLINK-3788,PAYLOAD,2022-10-30 02:56:17,15.08835593,0.0001938,53.2191,215.3977,42.8658,317.2485,0.00012575,1.714e-05,0.0,0 STARLINK-3788,1 52271U 22041L   22303.12242204  .00001714  00000-0  12575-3 0  9999,2 52271  53.2191 215.3977 0001938  42.8658 317.2485 15.08835593 29196,6917.894,95.438,541.1,538.418,0.0
52271.0,STARLINK-3788,PAYLOAD,2022-10-30 10:53:13,15.08838193,0.0002161,53.2192,213.9103,36.9567,323.1574,-5.8809e-05,-1.224e-05,0.0,0 STARLINK-3788,1 52271U 22041L   22303.45362607 -.00001224  00000-0 -58809-4 0  9994,2 52271  53.2192 213.9103 0002161  36.9567 323.1574 15.08838193 29244,6917.886,95.438,541.246,538.256,0.0
52271.0,STARLINK-3788,PAYLOAD,2022-10-31 04:22:28,15.08822723,0.0002109,53.219,210.6404,42.2716,317.8439,-5.1964e-05,-1.115e-05,0.0,0 STARLINK-3788,1 52271U 22041L   22304.18227860 -.00001115  00000-0 -51964-4 0  9990,2 52271  53.2190 210.6404 0002109  42.2716 317.8439 15.08822723 30578,6917.933000000001,95.439,541.257,538.339,0.0
52271.0,STARLINK-3788,PAYLOAD,2022-11-01 02:37:51,15.08841318,0.0002325,53.2193,206.4773,42.1032,318.0139,6.1708e-05,6.94e-06,0.0,0 STARLINK-3788,1 52271U 22041L   22305.10962834  .00000694  00000-0  61708-4 0  9996,2 52271  53.2193 206.4773 0002325  42.1032 318.0139 15.08841318 30710,6917.876,95.437,541.35,538.133,0.0
52271.0,STARLINK-3788,PAYLOAD,2022-11-01 10:34:47,15.08839867,0.0002294,53.2191,204.9899,41.795,318.3217,3.632e-05,2.9e-06,0.0,0 STARLINK-3788,1 52271U 22041L   22305.44083019  .00000290  00000-0  36320-4 0  9996,2 52271  53.2191 204.9899 0002294  41.7950 318.3217 15.08839867 29544,6917.880999999999,95.438,541.3330000000002,538.159,0.0
52271.0,STARLINK-3788,PAYLOAD,2022-11-02 10:25:35,15.08831372,0.0002322,53.2187,200.5302,40.3633,319.7531,0.00014483,2.017e-05,0.0,0 STARLINK-3788,1 52271U 22041L   22306.43443625  .00002017  00000-0  14483-3 0  9993,2 52271  53.2187 200.5302 0002322  40.3633 319.7531 15.08831372 30915,6917.906999999997,95.438,541.378,538.165,0.0
52271.0,STARLINK-3788,PAYLOAD,2022-11-02 19:57:54,15.08837458,0.0002285,53.2177,198.7484,44.0458,316.0716,-8.546899999999999e-05,-1.648e-05,0.0,0 STARLINK-3788,1 52271U 22041L   22306.83188084 -.00001648  00000-0 -85469-4 0  9996,2 52271  53.2177 198.7484 0002285  44.0458 316.0716 15.08837458 29753,6917.888000000001,95.438,541.3340000000002,538.172,0.0
52271.0,STARLINK-3788,PAYLOAD,2022-11-03 02:19:26,15.08842603,0.0002298,53.2187,197.5569,40.4342,319.6821,1.1281e-05,-1.09e-06,0.0,0 STARLINK-3788,1 52271U 22041L   22307.09683425 -.00000109  00000-0  11281-4 0  9995,2 52271  53.2187 197.5569 0002298  40.4342 319.6821 15.08842603 31017,6917.871999999999,95.437,541.327,538.148,0.0
52271.0,STARLINK-3788,PAYLOAD,2022-11-03 16:37:53,15.08850619,0.0002154,53.2186,194.8804,39.709,320.406,0.00014088,1.955e-05,0.0,0 STARLINK-3788,1 52271U 22041L   22307.69298339  .00001955  00000-0  14088-3 0  9993,2 52271  53.2186 194.8804 0002154  39.7090 320.4060 15.08850619 31101,6917.848000000001,95.437,541.203,538.2230000000002,0.0
52271.0,STARLINK-3788,PAYLOAD,2022-11-03 19:48:39,15.08852267,0.0002158,53.2188,194.2858,40.0571,320.058,0.00014845,2.076e-05,0.0,0 STARLINK-3788,1 52271U 22041L   22307.82546158  .00002076  00000-0  14845-3 0  9999,2 52271  53.2188 194.2858 0002158  40.0571 320.0580 15.08852267 29908,6917.843000000003,95.437,541.201,538.215,0.0
52271.0,STARLINK-3788,PAYLOAD,2022-11-04 02:10:11,15.08863903,0.0002222,53.2186,193.0963,40.2554,319.8602,0.00016242,2.299e-05,0.0,0 STARLINK-3788,1 52271U 22041L   22308.09041391  .00002299  00000-0  16242-3 0  9998,2 52271  53.2186 193.0963 0002222  40.2554 319.8602 15.08863903 31166,6917.807,95.436,541.2090000000002,538.135,0.0
52271.0,STARLINK-3788,PAYLOAD,2022-11-04 18:04:04,15.08845647,0.0001991,53.2178,190.123,39.1857,320.9279,0.00019299,2.785e-05,0.0,0 STARLINK-3788,1 52271U 22041L   22308.75282513  .00002785  00000-0  19299-3 0  9999,2 52271  53.2178 190.1230 0001991  39.1857 320.9279 15.08845647 31266,6917.863,95.437,541.105,538.351,0.0
52271.0,STARLINK-3788,PAYLOAD,2022-11-05 02:00:59,15.08845526,0.0002174,53.2165,188.636,31.8119,328.3004,7.2927e-05,8.73e-06,0.0,0 STARLINK-3788,1 52271U 22041L   22309.08402467  .00000873  00000-0  72927-4 0  9992,2 52271  53.2165 188.6360 0002174  31.8119 328.3004 15.08845526 30096,6917.863,95.437,541.232,538.225,0.0
52271.0,STARLINK-3788,PAYLOAD,2022-11-05 17:54:53,15.08805237,0.0002205,53.2173,185.6629,31.3302,328.7821,-0.00057637,-9.441e-05,0.0,0 STARLINK-3788,1 52271U 22041L   22309.74644693 -.00009441  00000-0 -57637-3 0  9996,2 52271  53.2173 185.6629 0002205  31.3302 328.7821 15.08805237 31417,6917.986999999999,95.44,541.377,538.326,0.0
52271.0,STARLINK-3788,PAYLOAD,2022-11-06 03:27:11,15.08822697,0.0002219,53.2179,183.8788,41.0173,319.0986,-0.00021203,-3.66e-05,0.0,0 STARLINK-3788,1 52271U 22041L   22310.14388651 -.00003660  00000-0 -21203-3 0  9998,2 52271  53.2179 183.8788 0002219  41.0173 319.0986 15.08822697 31478,6917.933000000001,95.439,541.3330000000002,538.263,0.0
52271.0,STARLINK-3788,PAYLOAD,2022-11-06 08:13:21,15.08824125,0.0002331,53.2173,182.9874,37.5374,322.5781,-0.00019005,-3.311e-05,0.0,0 STARLINK-3788,1 52271U 22041L   22310.34260673 -.00003311  00000-0 -19005-3 0  9993,2 52271  53.2173 182.9874 0002331  37.5374 322.5781 15.08824125 30284,6917.929,95.439,541.406,538.181,0.0
52271.0,STARLINK-3788,PAYLOAD,2022-11-07 03:17:59,15.08835427,0.0002191,53.2175,179.4189,39.5973,320.5179,0.00074534,0.00011593,0.0,0 STARLINK-3788,1 52271U 22041L   22311.13749728  .00011593  00000-0  74534-3 0  9991,2 52271  53.2175 179.4189 0002191  39.5973 320.5179 15.08835427 31622,6917.894,95.438,541.275,538.244,0.0
52271.0,STARLINK-3788,PAYLOAD,2022-11-07 22:22:37,15.08849263,0.0002129,53.2173,175.8506,42.8166,317.2991,0.0006335,9.811e-05,0.0,0 STARLINK-3788,1 52271U 22041L   22311.93237719  .00009811  00000-0  63350-3 0  9995,2 52271  53.2173 175.8506 0002129  42.8166 317.2991 15.08849263 30521,6917.852,95.437,541.19,538.244,0.0
52271.0,STARLINK-3788,PAYLOAD,2022-11-08 01:33:23,15.08853501,0.0002139,53.2171,175.2559,42.2713,317.8444,0.00074819,0.00011644,0.0,0 STARLINK-3788,1 52271U 22041L   22312.06485623  .00011644  00000-0  74819-3 0  9998,2 52271  53.2171 175.2559 0002139  42.2713 317.8444 15.08853501 30545,6917.839,95.437,541.184,538.224,0.0
52271.0,STARLINK-3788,PAYLOAD,2022-11-08 22:13:23,15.08864933,0.0001573,53.2165,171.3903,43.5313,316.5803,0.0006095,9.432e-05,0.0,0 STARLINK-3788,1 52271U 22041L   22312.92596409  .00009432  00000-0  60950-3 0  9991,2 52271  53.2165 171.3903 0001573  43.5313 316.5803 15.08864933 31894,6917.804,95.436,540.757,538.581,0.0
52271.0,STARLINK-3788,PAYLOAD,2022-11-09 07:45:42,15.08843194,0.0002124,53.2162,169.6059,42.2518,317.8637,2.1266e-07,-2.85e-06,0.0,0 STARLINK-3788,1 52271U 22041L   22313.32340480 -.00000285  00000-0  21266-6 0  9990,2 52271  53.2162 169.6059 0002124  42.2518 317.8637 15.08843194 30736,6917.871,95.437,541.205,538.266,0.0
52271.0,STARLINK-3788,PAYLOAD,2022-11-09 20:28:47,15.08846439,0.0002163,53.2159,167.2269,41.5965,318.5191,0.00054872,8.457e-05,0.0,0 STARLINK-3788,1 52271U 22041L   22313.85332550  .00008457  00000-0  54872-3 0  9991,2 52271  53.2159 167.2269 0002163  41.5965 318.5191 15.08846439 32033,6917.861,95.437,541.222,538.229,0.0
52271.0,STARLINK-3788,PAYLOAD,2022-11-09 23:39:33,15.08836364,0.0001953,53.216,166.6324,38.5329,321.5802,7.1141e-05,8.44e-06,0.0,0 STARLINK-3788,1 52271U 22041L   22313.98580677  .00000844  00000-0  71141-4 0  9991,2 52271  53.2160 166.6324 0001953  38.5329 321.5802 15.08836364 32057,6917.892,95.438,541.1080000000002,538.405,0.0
52271.0,STARLINK-3788,PAYLOAD,2022-11-10 20:19:34,15.088366399999998,0.0002151,53.2166,162.7666,40.0107,320.1043,0.00013012,1.783e-05,0.0,0 STARLINK-3788,1 52271U 22041L   22314.84693177  .00001783  00000-0  13012-3 0  9992,2 52271  53.2166 162.7666 0002151  40.0107 320.1043 15.08836640 30969,6917.891,95.438,541.244,538.268,0.0
52271.0,STARLINK-3788,PAYLOAD,2022-11-11 18:34:58,15.08849225,0.00022,53.2171,158.6037,40.4954,319.6202,0.00020428,2.965e-05,0.0,0 STARLINK-3788,1 52271U 22041L   22315.77428556  .00002965  00000-0  20428-3 0  9994,2 52271  53.2171 158.6037 0002200  40.4954 319.6202 15.08849225 32325,6917.852,95.437,541.239,538.195,0.0
52271.0,STARLINK-3788,PAYLOAD,2022-11-11 20:10:21,15.0884272,0.0002342,53.2174,158.30700000000004,41.4686,318.6484,0.00025158,3.718e-05,0.0,0 STARLINK-3788,1 52271U 22041L   22315.84052926  .00003718  00000-0  25158-3 0  9998,2 52271  53.2174 158.3070 0002342  41.4686 318.6484 15.08842720 31112,6917.871999999999,95.437,541.357,538.117,0.0
